LEMUR-2-ROBMOORE        
1 42754U 17019D   17292.09624751  .00001295  00000-0  59625-4 0  9993
2 42754  51.6400 166.7404 0011553  69.8461 290.3760 15.27958902 20217
LEMUR-2-SPIROVISION     
1 42755U 17019E   17291.89280435  .00002277  00000-0  94408-4 0  9997
2 42755  51.6388 167.6323 0011518  69.8902 290.3316 15.28173813 20076
UCLSAT                  
1 42765U 17036A   17291.84708208  .00001768  00000-0  82514-4 0  9994
2 42765  97.4367 350.1989 0011645 194.3555 165.7351 15.21099608 18015
LITUANICASAT-2          
1 42768U 17036D   17291.92908822  .00002759  00000-0  13016-3 0  9991
2 42768  97.4372 350.0924 0016212 185.1411 174.9660 15.20195763 17894
LEMUR-2-SHAINAJOHL      
1 42771U 17036G   17291.85311398  .00002120  00000-0  10071-3 0  9993
2 42771  97.4369 350.0410 0015278 184.3645 175.7459 15.20232138 17821
LEMUR-2-XUENITERENCE    
1 42772U 17036H   17292.37597987  .00002193  00000-0  10394-3 0  9990
2 42772  97.4367 350.5643 0014995 182.0225 178.0953 15.20272499 17905
LEMUR-2-LUCYBRYCE       
1 42773U 17036J   17291.90885930  .00002558  00000-0  12019-3 0  9998
2 42773  97.4370 350.1193 0014846 183.1111 177.0034 15.20424889 17830
LEMUR-2-KUNGFOO         
1 42774U 17036K   17291.91012653  .00002162  00000-0  10235-3 0  9993
2 42774  97.4370 350.1209 0014715 183.2644 176.8497 15.20341307 17828
AALTO-1                 
1 42775U 17036L   17291.84236611  .00001283  00000-0  62210-4 0  9992
2 42775  97.4364 350.0550 0014319 182.4244 177.6924 15.20235473 17827
URSA MAIOR              
1 42776U 17036M   17291.70762996  .00001401  00000-0  67563-4 0  9996
2 42776  97.4368 349.9334 0014177 183.1404 176.9744 15.20282941 17809
COMPASS 2               
1 42777U 17036N   17292.40516142  .00002189  00000-0  10235-3 0  9992
2 42777  97.4380 350.6975 0013260 184.5296 175.5822 15.20775889 17901
LEMUR-2-LYNSEY-SYMO     
1 42779U 17036Q   17292.38832962  .00002649  00000-0  12226-3 0  9995
2 42779  97.4373 350.7068 0012644 190.6502 169.4467 15.21037413 17892
LEMUR-2-LISASAURUS      
1 42780U 17036R   17291.79683037  .00002189  00000-0  10179-3 0  9992
2 42780  97.4371 350.1172 0012443 192.7299 167.3624 15.20961365 17810
LEMUR-2-SAM-AMELIA      
1 42781U 17036S   17291.85850843  .00002527  00000-0  11667-3 0  9990
2 42781  97.4371 350.1863 0012423 192.8183 167.2739 15.21071268 17810
LEMUR-2-MCPEAKE         
1 42782U 17036T   17291.85624969  .00002526  00000-0  11651-3 0  9991
2 42782  97.4373 350.1923 0012253 192.2948 167.7990 15.21105157 17813
DIAMOND RED             
1 42783U 17036U   17291.86096432  .00001596  00000-0  75301-4 0  9990
2 42783  97.4365 350.1822 0012207 194.5419 165.5467 15.20870287 17828
PEGASUS                 
1 42784U 17036V   17292.12075593  .00001690  00000-0  79336-4 0  9993
2 42784  97.4369 350.4485 0012211 193.5891 166.5017 15.20956888 17867
DIAMOND GREEN           
1 42785U 17036W   17291.85996887  .00001490  00000-0  70521-4 0  9996
2 42785  97.4371 350.1872 0012120 194.6486 165.4400 15.20864778 17892
DIAMOND BLUE            
1 42786U 17036X   17291.85792448  .00001482  00000-0  70211-4 0  9991
2 42786  97.4371 350.1889 0011955 194.9678 165.1205 15.20844283 17891
NUDTSAT                 
1 42787U 17036Y   17291.91083637  .00002455  00000-0  11296-3 0  9990
2 42787  97.4371 350.2700 0011859 194.5326 165.5570 15.21228255 17675
SUCHAI                  
1 42788U 17036Z   17291.91479123  .00001982  00000-0  92109-4 0  9997
2 42788  97.4369 350.2635 0011848 194.3133 165.7769 15.21108354 17907
SKCUBE                  
1 42789U 17036AA  17291.91219893  .00001858  00000-0  86495-4 0  9997
2 42789  97.4368 350.2656 0011685 194.1040 165.9871 15.21124451 17827
VZLUSAT-1               
1 42790U 17036AB  17291.83917594  .00002461  00000-0  11311-3 0  9998
2 42790  97.4367 350.2070 0011403 194.8592 165.2310 15.21268276 17819
ROBUSTA-1B              
1 42792U 17036AD  17291.90247338  .00001837  00000-0  85238-4 0  9996
2 42792  97.4365 350.2742 0011215 195.2303 164.8597 15.21257589 17830
CICERO 6                
1 42793U 17036AE  17291.89002040  .00001441  00000-0  67402-4 0  9998
2 42793  97.4360 350.2887 0010227 195.7457 164.3462 15.21344405 17901
D-SAT                   
1 42794U 17036AF  17291.94676339  .00000321  00000-0  33707-4 0  9990
2 42794  97.6285 350.2395 0127569   5.2846 354.9685 14.90671960 17783
TOKI                    
1 42820U 98067MU  17291.99370156  .00015148  00000-0  20155-3 0  9991
2 42820  51.6370 139.4652 0001758 344.9734  15.1206 15.58383330 16130
GHANASAT-1              
1 42821U 98067MV  17291.61370317  .00013846  00000-0  18580-3 0  9992
2 42821  51.6373 141.4277 0001791 349.7716  10.3239 15.58240919 16071
MAZAALAI (NUMSAT-1)     
1 42822U 98067MW  17291.93487101  .00014698  00000-0  19655-3 0  9998
2 42822  51.6374 139.8229 0001803 354.5871   5.5102 15.58276230 16127
BRAC ONNESHA            
1 42823U 98067MX  17291.93689211  .00014701  00000-0  19654-3 0  9999
2 42823  51.6378 139.8395 0005164  12.8027 347.3095 15.58276368 16127
NIGERIAEDUSAT-1         
1 42824U 98067MY  17291.94109832  .00014366  00000-0  19280-3 0  9999
2 42824  51.6383 139.8681 0005028  13.9067 346.2063 15.58195777 16124
LEMUR-2-GREENBERG       
1 42837U 17042N   17291.90506887  .00000924  00000-0  98481-4 0  9990
2 42837  97.6075 198.1763 0011859 283.5444  76.4453 14.91130182 14395
LEMUR-2-ANDIS           
1 42838U 17042P   17292.10496199  .00001307  00000-0  13698-3 0  9990
2 42838  97.6075 198.3717 0011947 282.6797  77.3091 14.91148609 14421
LEMUR-2-MONSON          
1 42839U 17042Q   17292.16610626  .00000648  00000-0  70604-4 0  9998
2 42839  97.6074 198.4434 0011659 281.2875  78.7033 14.91214519 14436
LEMUR-2-FURIAUS         
1 42840U 17042R   17291.96214703  .00000996  00000-0  10536-3 0  9996
2 42840  97.6074 198.2519 0011729 282.8393  77.1516 14.91285024 14393
LEMUR-2-PETERG          
1 42841U 17042S   17291.95362963  .00001026  00000-0  10809-3 0  9996
2 42841  97.6076 198.2638 0011361 281.3173  78.6769 14.91415010 14408
LEMUR-2-DEMBITZ         
1 42842U 17042T   17291.95219432  .00000996  00000-0  10495-3 0  9995
2 42842  97.6074 198.2639 0011369 281.9226  78.0718 14.91437022 14406
LEMUR-2-ZACHARY         
1 42845U 17042W   17291.93802386  .00000578  00000-0  62893-4 0  9998
2 42845  97.6024 198.2177 0011753 287.2022  72.7910 14.91631769 14398
FLOCK 2K-03             
1 42850U 17042AB  17291.68953530  .00009642  00000-0  29490-3 0  9990
2 42850  96.9952 195.5247 0009465 270.4673  89.5486 15.34000312 14573
FLOCK 2K-04             
1 42851U 17042AC  17291.69250935  .00009855  00000-0  30210-3 0  9999
2 42851  96.9954 195.5238 0009240 272.6471  87.3715 15.33924172 14576
FLOCK 2K-01             
1 42852U 17042AD  17291.69118057  .00009416  00000-0  28860-3 0  9999
2 42852  96.9951 195.5245 0009061 271.2347  88.7859 15.33943470 14576
FLOCK 2K-02             
1 42853U 17042AE  17291.70503794  .00002203  00000-0  71303-4 0  9996
2 42853  96.9958 195.5123 0009965 268.7260  91.2841 15.33000124 14577
FLOCK 2K-47             
1 42854U 17042AF  17292.27517126  .00009792  00000-0  29945-3 0  9998
2 42854  96.9955 196.0819 0008978 266.9192  93.1025 15.34003942 14667
FLOCK 2K-48             
1 42855U 17042AG  17291.81743561  .00010003  00000-0  30531-3 0  9992
2 42855  96.9955 195.6553 0008976 269.5780  90.4435 15.34060618 14598
FLOCK 2K-45             
1 42856U 17042AH  17292.27243197  .00011526  00000-0  35120-3 0  9994
2 42856  96.9952 196.0875 0009026 266.1257  93.8955 15.34076037 14661
FLOCK 2K-24             
1 42857U 17042AJ  17291.68438250  .00010263  00000-0  31320-3 0  9990
2 42857  96.9953 195.5311 0008905 266.5584  93.4641 15.34057402 14577
FLOCK 2K-46             
1 42858U 17042AK  17292.20488489  .00010870  00000-0  33132-3 0  9996
2 42858  96.9957 196.0324 0009116 265.4315  94.5888 15.34079323 14657
FLOCK 2K-23             
1 42859U 17042AL  17292.20383019  .00011498  00000-0  34991-3 0  9991
2 42859  96.9955 196.0322 0009185 265.9324  94.0870 15.34116138 14657
FLOCK 2K-21             
1 42860U 17042AM  17292.20195096  .00010549  00000-0  32126-3 0  9993
2 42860  96.9953 196.0339 0009145 264.6870  95.3330 15.34114828 14652
FLOCK 2K-22             
1 42861U 17042AN  17292.40702060  .00010921  00000-0  33611-3 0  9995
2 42861  96.9957 196.2102 0009187 262.3301  97.6900 15.33770765 14685
FLOCK 2K-07             
1 42862U 17042AP  17291.67820144  .00009842  00000-0  29960-3 0  9990
2 42862  96.9956 195.5425 0009245 266.8902  93.1284 15.34144716 14583
FLOCK 2K-08             
1 42863U 17042AQ  17292.19763457  .00011251  00000-0  34204-3 0  9996
2 42863  96.9951 196.0361 0009243 264.7108  95.3082 15.34154610 14659
FLOCK 2K-05             
1 42864U 17042AR  17291.80789114  .00010071  00000-0  30714-3 0  9993
2 42864  96.9956 195.6664 0009351 265.7595  94.2580 15.34080781 14598
FLOCK 2K-40             
1 42865U 17042AS  17292.19624546  .00009492  00000-0  28904-3 0  9997
2 42865  96.9954 196.0418 0009250 264.8610  95.1579 15.34147134 14656
FLOCK 2K-39             
1 42866U 17042AT  17292.19529661  .00009020  00000-0  27471-3 0  9995
2 42866  96.9952 196.0410 0009293 263.9641  96.0544 15.34155171 14650
FLOCK 2K-37             
1 42867U 17042AU  17292.32393732  .00009826  00000-0  29875-3 0  9993
2 42867  96.9958 196.1674 0009296 264.3866  95.6318 15.34186157 14671
FLOCK 2K-38             
1 42868U 17042AV  17291.79948739  .00006648  00000-0  20270-3 0  9996
2 42868  96.9953 195.6773 0009434 266.5981  93.4184 15.34214066 14596
FLOCK 2K-31             
1 42869U 17042AW  17291.66713192  .00008577  00000-0  26067-3 0  9999
2 42869  96.9953 195.5543 0009433 265.4874  94.5292 15.34236164 14572
FLOCK 2K-32             
1 42870U 17042AX  17292.25331683  .00005777  00000-0  17639-3 0  9992
2 42870  96.9943 196.1107 0009585 264.4930  95.5221 15.34225110 14668
